965
ASUS45 KPSR 151310
RWRAZ

ARIZONA HOURLY REGIONAL WEATHER ROUNDUP
NATIONAL WEATHER SERVICE PHOENIX AZ
600 AM MST TUE APR 15 2025

NOTE: FAIR INDICATES FEW OR NO CLOUDS BELOW 12,000 FEET WITH NO
SIGNIFICANT WEATHER AND/OR OBSTRUCTIONS TO VISIBILITY.

AZZ001>003-036-151400-
NORTHWEST ARIZONA

CITY           SKY/WX    TMP DP  RH WIND       PRES   REMARKS
BULLHEAD CITY  RAIN     66  19  16 NE3       29.91R TC  19
KINGMAN        SNOW     58  30  34 SW9       30.04R TC  14
$$

AZZ004>008-015-016-018-151400-
NORTH CENTRAL ARIZONA

CITY           SKY/WX    TMP DP  RH WIND       PRES   REMARKS
GRAND CANYON   TSTM     34  29  82 CALM      30.23R TC   1
WILLIAMS       LGT RAIN     34  25  69 S9        30.22S WCI  26 TC   1
PRESCOTT       LGT SNOW     44  28  53 S7        30.15R TC   7
FLAGSTAFF      DRIZZLE     32  22  66 CALM      30.24R TC   0
PAYSON         SMOKE     50  27  40 N1        30.17R TC  10
PAGE           MOCLOUDY    57  11  16 CALM      30.11R TC  14
$$

AZZ009>014-017-151400-
NORTHEAST ARIZONA

CITY           SKY/WX    TMP DP  RH WIND       PRES   REMARKS
WINSLOW        THUNDER     44  22  41 SW3       30.16R TC   7
SAINT JOHNS    SQUALL    50  27  40 CALM      30.19R TC  10
WINDOW ROCK    CLOUDY     37  25  61 CALM      30.26R TC   3
SHOW LOW       PTCLDY    46  21  36 S8        30.23S TC   8
$$

AZZ540-542>544-546-548-151400-
GREATER PHOENIX AREA

CITY           SKY/WX    TMP DP  RH WIND       PRES   REMARKS
PHOENIX        HAZE    68  31  25 E8        29.95R TC  20
BUCKEYE        HAZE     59  14  17 N7        29.96R TC  15
GLENDALE       SMOKE     63  27  25 N5        29.94  TC  17
LUKE AFB       SMOKE     61  21  21 NW7       29.95R TC  16
DEER VALLEY    HAZE     67  26  21 E6        29.98R TC  19
SCOTTSDALE     LGT RAIN     65  28  24 CALM      29.99R TC  18
MESA-FALCON    RAIN     69  30  23 NE5       29.97R TC  21
MESA-GATEWAY   LGT RAIN     63  25  23 SE8       29.99R TC  17
CHANDLER       SNOW     63  32  31 E6        29.98R TC  17
$$

AZZ539-553-151400-
SOUTHWEST MARICOPA COUNTY AND PINAL COUNTY

CITY           SKY/WX    TMP DP  RH WIND       PRES   REMARKS
CASA GRANDE    NOT AVBL
$$

AZZ503-504-507>509-151400-
SOUTHEAST ARIZONA

CITY           SKY/WX    TMP DP  RH WIND       PRES   REMARKS
TUCSON         RAIN     63  23  21 CALM      30.07R TC  17
DAVIS-MONTHAN  CLEAR     62  22  22 E8        30.04R TC  17
RYAN FIELD     CLEAR     57  16  19 CALM      30.03  TC  14
NOGALES        PTCLDY    59  31  34 CALM      30.11S TC  15
SIERRA VISTA   CLEAR     63  37  39 S9        30.18R TC  17
DOUGLAS        CLEAR     56  32  40 SE6       30.16R TC  13
SAFFORD        MOCLOUDY     64  26  23 E10       30.07R TC  18
$$

AZZ532-151400-
SOUTHWEST ARIZONA

CITY           SKY/WX    TMP DP  RH WIND       PRES   REMARKS
YUMA           LGT SNOW     64  27  24 N6        29.89R TC  18
$$

CAZ041-043-047-048-061-525>527-560>570-151400-
SOUTHERN CALIFORNIA

CITY           SKY/WX    TMP DP  RH WIND       PRES   REMARKS
DOWNTOWN L.A.  NOT AVBL
L.A. AIRPORT   CLOUDY    56  48  74 CALM      30.03F TC  13
SAN DIEGO      CLOUDY    60  49  66 SW5       30.06R TC  16
BURBANK        CLOUDY    53  50  89 S7        30.03F TC  12
ONTARIO        CLOUDY    52  50  93 SW5       30.03F FOG     TC  11
RIVERSIDE      CLOUDY    53  49  86 W3        30.04R TC  12
PALM SPRINGS   CLEAR     64  47  53 W5        29.91  TC  18
EL CENTRO NAS  CLEAR     57  39  51 SE3       29.89R TC  14
IMPERIAL       CLEAR     61  42  49 S3        29.87R TC  16
BLYTHE         CLEAR     59  32  36 N7        29.90R TC  15
NEEDLES        CLEAR     70  31  23 W3        29.93R TC  21
$$

NVZ020-UTZ003-151400-
SOUTHERN NEVADA-UTAH

CITY           SKY/WX    TMP DP  RH WIND       PRES   REMARKS
LAS VEGAS      MOCLDY    69  29  22 SW3       29.97R TC  21
SALT LAKE CITY PTCLDY    44  27  51 SE3       30.12S TC   7
$$

NMZ009-TXZ055-151400-
NEW MEXICO-WEST TEXAS

CITY           SKY/WX    TMP DP  RH WIND       PRES   REMARKS
ALBUQUERQUE    MOCLDY    49  29  46 E38G48    30.26S TC   9
EL PASO        PTCLDY    60  35  39 VRB3      30.20R TC  16
$$


........................KEY........................
SKY/WX - SKY CONDITION/WEATHER
TMP    - TEMPERATURE IN FAHRENHEIT
DP     - DEW POINT IN FAHRENHEIT
RH     - RELATIVE HUMIDITY IN PERCENT
WIND   - DIRECTION AND SPEED IN MILES PER HOUR (MPH)
VRB    - VARIABLE WIND DIRECTION
PRES   - MEAN SEA LEVEL PRESSURE IN INCHES OF MERCURY
         F - FALLING PRESSURE   R - RISING PRESSURE
         S - STEADY PRESSURE
VSB    - VISIBILITY IN MILES
HX     - HEAT INDEX IN FAHRENHEIT
WCI    - WIND CHILL INDEX IN FAHRENHEIT
TC     - TEMPERATURE IN CELSIUS WHICH IS ALSO KNOWN AS
         TEMPERATURE IN CENTIGRADE
AFB    - AIR FORCE BASE
         LUKE AFB IS LUKE AIR FORCE BASE
         DAVIS-MONTHAN IS DAVIS-MONTHAN AIR FORCE BASE
NAS    - NAVAL AIR STATION
         EL CENTRO NAS IS EL CENTRO NAVAL AIR STATION
N/A    - NOT AVAILABLE




